[{"OBJECT_NAME":"SL-16 R/B","OBJECT_ID":"1993-059B","EPOCH":"2026-04-03T00:56:22.037280","MEAN_MOTION":14.17234614,"ECCENTRICITY":0.00171343,"INCLINATION":70.9907,"RA_OF_ASC_NODE":319.7812,"ARG_OF_PERICENTER":180.6054,"MEAN_ANOMALY":179.5052,"EPHEMERIS_TYPE":0,"CLASSIFICATION_TYPE":"U","NORAD_CAT_ID":22803,"ELEMENT_SET_NO":999,"REV_AT_EPOCH":68298,"BSTAR":3.04762e-5,"MEAN_MOTION_DOT":1.4e-7,"MEAN_MOTION_DDOT":0},{"OBJECT_NAME":"ARIANE 40 R/B","OBJECT_ID":"1993-061H","EPOCH":"2026-04-03T05:00:56.393856","MEAN_MOTION":14.32874995,"ECCENTRICITY":0.00102946,"INCLINATION":98.4871,"RA_OF_ASC_NODE":161.6074,"ARG_OF_PERICENTER":205.6568,"MEAN_ANOMALY":154.4106,"EPHEMERIS_TYPE":0,"CLASSIFICATION_TYPE":"U","NORAD_CAT_ID":22830,"ELEMENT_SET_NO":999,"REV_AT_EPOCH":69761,"BSTAR":0.00014819403,"MEAN_MOTION_DOT":3.62e-6,"MEAN_MOTION_DDOT":0},{"OBJECT_NAME":"COSMOS 2278","OBJECT_ID":"1994-023A","EPOCH":"2026-04-03T05:01:44.675904","MEAN_MOTION":14.14374859,"ECCENTRICITY":0.0009319,"INCLINATION":71.0506,"RA_OF_ASC_NODE":123.7998,"ARG_OF_PERICENTER":336.8305,"MEAN_ANOMALY":23.2396,"EPHEMERIS_TYPE":0,"CLASSIFICATION_TYPE":"U","NORAD_CAT_ID":23087,"ELEMENT_SET_NO":999,"REV_AT_EPOCH":64827,"BSTAR":1.6020199e-5,"MEAN_MOTION_DOT":-1.7e-7,"MEAN_MOTION_DDOT":0},{"OBJECT_NAME":"SL-16 R/B","OBJECT_ID":"1994-023B","EPOCH":"2026-04-03T05:52:45.903072","MEAN_MOTION":14.15019148,"ECCENTRICITY":0.00055644,"INCLINATION":71.003,"RA_OF_ASC_NODE":19.3175,"ARG_OF_PERICENTER":264.0315,"MEAN_ANOMALY":96.0174,"EPHEMERIS_TYPE":0,"CLASSIFICATION_TYPE":"U","NORAD_CAT_ID":23088,"ELEMENT_SET_NO":999,"REV_AT_EPOCH":64956,"BSTAR":0.00014205834,"MEAN_MOTION_DOT":2.28e-6,"MEAN_MOTION_DDOT":0},{"OBJECT_NAME":"SL-16 R/B","OBJECT_ID":"1994-074B","EPOCH":"2026-04-03T01:37:37.627968","MEAN_MOTION":14.79437371,"ECCENTRICITY":0.00076269,"INCLINATION":97.7071,"RA_OF_ASC_NODE":122.8945,"ARG_OF_PERICENTER":133.4541,"MEAN_ANOMALY":252.0198,"EPHEMERIS_TYPE":0,"CLASSIFICATION_TYPE":"U","NORAD_CAT_ID":23343,"ELEMENT_SET_NO":999,"REV_AT_EPOCH":69085,"BSTAR":0.0001057276,"MEAN_MOTION_DOT":7.4e-6,"MEAN_MOTION_DDOT":0},{"OBJECT_NAME":"SL-16 R/B","OBJECT_ID":"1994-077B","EPOCH":"2026-04-03T06:54:13.612320","MEAN_MOTION":14.15568399,"ECCENTRICITY":0.00016366,"INCLINATION":70.9822,"RA_OF_ASC_NODE":300.7409,"ARG_OF_PERICENTER":191.3596,"MEAN_ANOMALY":168.749,"EPHEMERIS_TYPE":0,"CLASSIFICATION_TYPE":"U","NORAD_CAT_ID":23405,"ELEMENT_SET_NO":999,"REV_AT_EPOCH":61971,"BSTAR":-6.8335226e-5,"MEAN_MOTION_DOT":-1.82e-6,"MEAN_MOTION_DDOT":0},{"OBJECT_NAME":"ARIANE 40+ R/B","OBJECT_ID":"1995-021B","EPOCH":"2026-04-03T05:02:28.483296","MEAN_MOTION":14.39791286,"ECCENTRICITY":0.00078576,"INCLINATION":98.4455,"RA_OF_ASC_NODE":164.3552,"ARG_OF_PERICENTER":73.4086,"MEAN_ANOMALY":349.94,"EPHEMERIS_TYPE":0,"CLASSIFICATION_TYPE":"U","NORAD_CAT_ID":23561,"ELEMENT_SET_NO":999,"REV_AT_EPOCH":62277,"BSTAR":0.00017244674,"MEAN_MOTION_DOT":4.97e-6,"MEAN_MOTION_DDOT":0},{"OBJECT_NAME":"SL-16 R/B","OBJECT_ID":"1995-058B","EPOCH":"2026-04-03T05:24:15.904512","MEAN_MOTION":14.15497908,"ECCENTRICITY":0.00102675,"INCLINATION":71.0192,"RA_OF_ASC_NODE":128.7458,"ARG_OF_PERICENTER":80.7485,"MEAN_ANOMALY":279.4799,"EPHEMERIS_TYPE":0,"CLASSIFICATION_TYPE":"U","NORAD_CAT_ID":23705,"ELEMENT_SET_NO":999,"REV_AT_EPOCH":57132,"BSTAR":-1.7402244e-5,"MEAN_MOTION_DOT":-8.2e-7,"MEAN_MOTION_DDOT":0},{"OBJECT_NAME":"SL-16 R/B","OBJECT_ID":"1996-051B","EPOCH":"2026-04-03T07:35:00.284064","MEAN_MOTION":14.12423173,"ECCENTRICITY":0.00131588,"INCLINATION":70.7581,"RA_OF_ASC_NODE":123.116,"ARG_OF_PERICENTER":107.6586,"MEAN_ANOMALY":252.5971,"EPHEMERIS_TYPE":0,"CLASSIFICATION_TYPE":"U","NORAD_CAT_ID":24298,"ELEMENT_SET_NO":999,"REV_AT_EPOCH":52512,"BSTAR":0.00010631186,"MEAN_MOTION_DOT":1.47e-6,"MEAN_MOTION_DDOT":0},{"OBJECT_NAME":"ORBVIEW 2 (SEASTAR)","OBJECT_ID":"1997-037A","EPOCH":"2026-04-03T00:32:29.724000","MEAN_MOTION":14.35513052,"ECCENTRICITY":0.00021369,"INCLINATION":98.8608,"RA_OF_ASC_NODE":257.9845,"ARG_OF_PERICENTER":17.3059,"MEAN_ANOMALY":342.8198,"EPHEMERIS_TYPE":0,"CLASSIFICATION_TYPE":"U","NORAD_CAT_ID":24883,"ELEMENT_SET_NO":999,"REV_AT_EPOCH":51196,"BSTAR":0.00016680579,"MEAN_MOTION_DOT":4.33e-6,"MEAN_MOTION_DDOT":0},{"OBJECT_NAME":"SL-16 R/B","OBJECT_ID":"1998-043G","EPOCH":"2026-04-03T03:33:40.872672","MEAN_MOTION":14.2605575,"ECCENTRICITY":0.00089826,"INCLINATION":98.8297,"RA_OF_ASC_NODE":46.6915,"ARG_OF_PERICENTER":307.8809,"MEAN_ANOMALY":52.1558,"EPHEMERIS_TYPE":0,"CLASSIFICATION_TYPE":"U","NORAD_CAT_ID":25400,"ELEMENT_SET_NO":999,"REV_AT_EPOCH":44247,"BSTAR":6.4435164e-5,"MEAN_MOTION_DOT":1.09e-6,"MEAN_MOTION_DDOT":0},{"OBJECT_NAME":"SL-16 R/B","OBJECT_ID":"1998-045B","EPOCH":"2026-04-03T05:22:38.874720","MEAN_MOTION":14.16193358,"ECCENTRICITY":0.0008192,"INCLINATION":71.0091,"RA_OF_ASC_NODE":129.9812,"ARG_OF_PERICENTER":331.854,"MEAN_ANOMALY":28.2139,"EPHEMERIS_TYPE":0,"CLASSIFICATION_TYPE":"U","NORAD_CAT_ID":25407,"ELEMENT_SET_NO":999,"REV_AT_EPOCH":43057,"BSTAR":3.517971e-5,"MEAN_MOTION_DOT":2.2e-7,"MEAN_MOTION_DDOT":0},{"OBJECT_NAME":"ISS (ZARYA)","OBJECT_ID":"1998-067A","EPOCH":"2026-04-03T02:25:58.213344","MEAN_MOTION":15.48735493,"ECCENTRICITY":0.00062367,"INCLINATION":51.6327,"RA_OF_ASC_NODE":311.671,"ARG_OF_PERICENTER":265.7481,"MEAN_ANOMALY":94.2795,"EPHEMERIS_TYPE":0,"CLASSIFICATION_TYPE":"U","NORAD_CAT_ID":25544,"ELEMENT_SET_NO":999,"REV_AT_EPOCH":56011,"BSTAR":0.00022784187,"MEAN_MOTION_DOT":0.00012012,"MEAN_MOTION_DDOT":0},{"OBJECT_NAME":"CZ-4B R/B","OBJECT_ID":"1999-025C","EPOCH":"2026-04-03T03:31:19.015104","MEAN_MOTION":14.18270419,"ECCENTRICITY":0.00359733,"INCLINATION":98.6574,"RA_OF_ASC_NODE":136.8433,"ARG_OF_PERICENTER":274.6158,"MEAN_ANOMALY":151.848,"EPHEMERIS_TYPE":0,"CLASSIFICATION_TYPE":"U","NORAD_CAT_ID":25732,"ELEMENT_SET_NO":999,"REV_AT_EPOCH":39163,"BSTAR":6.311773e-5,"MEAN_MOTION_DOT":8.7e-7,"MEAN_MOTION_DDOT":0},{"OBJECT_NAME":"OKEAN-O","OBJECT_ID":"1999-039A","EPOCH":"2026-04-03T02:53:27.292992","MEAN_MOTION":14.80376988,"ECCENTRICITY":9.135e-5,"INCLINATION":97.9391,"RA_OF_ASC_NODE":152.7574,"ARG_OF_PERICENTER":101.6412,"MEAN_ANOMALY":258.4902,"EPHEMERIS_TYPE":0,"CLASSIFICATION_TYPE":"U","NORAD_CAT_ID":25860,"ELEMENT_SET_NO":999,"REV_AT_EPOCH":43800,"BSTAR":0.00014595896,"MEAN_MOTION_DOT":1.062e-5,"MEAN_MOTION_DDOT":0},{"OBJECT_NAME":"SL-16 R/B","OBJECT_ID":"1999-039B","EPOCH":"2026-04-03T03:28:39.975168","MEAN_MOTION":14.81767105,"ECCENTRICITY":0.00149703,"INCLINATION":97.9914,"RA_OF_ASC_NODE":152.1987,"ARG_OF_PERICENTER":172.9074,"MEAN_ANOMALY":187.2353,"EPHEMERIS_TYPE":0,"CLASSIFICATION_TYPE":"U","NORAD_CAT_ID":25861,"ELEMENT_SET_NO":999,"REV_AT_EPOCH":44048,"BSTAR":0.00012426302,"MEAN_MOTION_DOT":9.28e-6,"MEAN_MOTION_DDOT":0},{"OBJECT_NAME":"DELTA 2 R/B","OBJECT_ID":"1999-041E","EPOCH":"2026-04-03T06:56:31.581024","MEAN_MOTION":14.11896847,"ECCENTRICITY":0.05026192,"INCLINATION":51.761,"RA_OF_ASC_NODE":203.0105,"ARG_OF_PERICENTER":60.973,"MEAN_ANOMALY":304.0603,"EPHEMERIS_TYPE":0,"CLASSIFICATION_TYPE":"U","NORAD_CAT_ID":25876,"ELEMENT_SET_NO":999,"REV_AT_EPOCH":36650,"BSTAR":0.00022424463,"MEAN_MOTION_DOT":1.15e-5,"MEAN_MOTION_DDOT":0}]
