SL-16 R/B               
1 22803U 93059B   26093.03914395  .00000014  00000+0  30476-4 0  9993
2 22803  70.9907 319.7812 0017134 180.6054 179.5052 14.17234614682985
ARIANE 40 R/B           
1 22830U 93061H   26093.20898604  .00000362  00000+0  14819-3 0  9997
2 22830  98.4871 161.6074 0010294 205.6568 154.4106 14.32874995697619
COSMOS 2278             
1 23087U 94023A   26093.20954486 -.00000017  00000+0  16020-4 0  9997
2 23087  71.0506 123.7998 0009319 336.8305  23.2396 14.14374859648278
SL-16 R/B               
1 23088U 94023B   26093.24497573  .00000228  00000+0  14206-3 0  9997
2 23088  71.0030  19.3175 0005564 264.0315  96.0174 14.15019148649562
SL-16 R/B               
1 23343U 94074B   26093.06779662  .00000740  00000+0  10573-3 0  9991
2 23343  97.7071 122.8945 0007626 133.4541 252.0198 14.79437371690852
SL-16 R/B               
1 23405U 94077B   26093.28765755 -.00000182  00000+0 -68335-4 0  9997
2 23405  70.9822 300.7409 0001636 191.3596 168.7490 14.15568399619717
ARIANE 40+ R/B          
1 23561U 95021B   26093.21005189  .00000497  00000+0  17245-3 0  9991
2 23561  98.4455 164.3552 0007857  73.4086 349.9400 14.39791286622778
SL-16 R/B               
1 23705U 95058B   26093.22518408 -.00000082  00000+0 -17402-4 0  9993
2 23705  71.0192 128.7458 0010267  80.7485 279.4799 14.15497908571325
SL-16 R/B               
1 24298U 96051B   26093.31597551  .00000147  00000+0  10631-3 0  9997
2 24298  70.7581 123.1160 0013158 107.6586 252.5971 14.12423173525124
ORBVIEW 2 (SEASTAR)     
1 24883U 97037A   26093.02256625  .00000433  00000+0  16681-3 0  9993
2 24883  98.8608 257.9845 0002136  17.3059 342.8198 14.35513052511969
SL-16 R/B               
1 25400U 98043G   26093.14838973  .00000109  00000+0  64435-4 0  9993
2 25400  98.8297  46.6915 0008982 307.8809  52.1558 14.26055750442471
SL-16 R/B               
1 25407U 98045B   26093.22406105  .00000022  00000+0  35180-4 0  9998
2 25407  71.0091 129.9812 0008192 331.8540  28.2139 14.16193358430579
ISS (ZARYA)             
1 25544U 98067A   26093.10136821  .00012012  00000+0  22784-3 0  9993
2 25544  51.6327 311.6710 0006236 265.7481  94.2795 15.48735493560113
CZ-4B R/B               
1 25732U 99025C   26093.14674786  .00000087  00000+0  63118-4 0  9994
2 25732  98.6574 136.8433 0035973 274.6158 151.8480 14.18270419391634
OKEAN-O                 
1 25860U 99039A   26093.12045478  .00001062  00000+0  14596-3 0  9998
2 25860  97.9391 152.7574 0000913 101.6412 258.4902 14.80376988438009
SL-16 R/B               
1 25861U 99039B   26093.14490712  .00000928  00000+0  12426-3 0  9996
2 25861  97.9914 152.1987 0014970 172.9074 187.2353 14.81767105440486
DELTA 2 R/B             
1 25876U 99041E   26093.28925441  .00001150  00000+0  22424-3 0  9999
2 25876  51.7610 203.0105 0502619  60.9730 304.0603 14.11896847366504
